{
  "type": "FeatureCollection",
  "features": [
    {
      "type": "Feature",
      "properties": {
        "norad_id": 29268,
        "name": "ARIRANG-2 (KOMPSAT-2)",
        "group": "resource",
        "lat": -29.591734567347984,
        "lon": -166.05219844453308,
        "alt_km": 681.8473609392231,
        "timestamp": "2025-12-27T17:24:57.049990+00:00",
        "meta_object_name": "ARIRANG-2 (KOMPSAT-2)",
        "meta_object_id": "2006-031A",
        "meta_epoch": "2025-12-27T13:00:57.970368",
        "meta_mean_motion": 14.64507274,
        "meta_eccentricity": 0.0013159,
        "meta_inclination": 97.8262,
        "meta_ra_of_asc_node": 189.2937,
        "meta_arg_of_pericenter": 257.9295,
        "meta_mean_anomaly": 186.2005,
        "meta_ephemeris_type": 0,
        "meta_classification_type": "U",
        "meta_norad_cat_id": 29268,
        "meta_element_set_no": 999,
        "meta_rev_at_epoch": 3635,
        "meta_bstar": 0.00010005,
        "meta_mean_motion_dot": 4.86e-06,
        "meta_mean_motion_ddot": 0,
        "tle_line1": "1 29268U 06031A   25361.54233762  .00000486  00000+0  10005-3 0  9992",
        "tle_line2": "2 29268  97.8262 189.2937 0013159 257.9295 186.2005 14.64507274 36359"
      },
      "geometry": {
        "type": "Point",
        "coordinates": [
          -166.05219844453308,
          -29.591734567347984
        ]
      }
    },
    {
      "type": "Feature",
      "properties": {
        "norad_id": 29709,
        "name": "LAPAN-TUBSAT",
        "group": "resource",
        "lat": -33.71109929087831,
        "lon": -2.338023555101617,
        "alt_km": 613.5250669635443,
        "timestamp": "2025-12-27T17:24:57.050000+00:00",
        "meta_object_name": "LAPAN-TUBSAT",
        "meta_object_id": "2007-001A",
        "meta_epoch": "2025-12-27T12:43:10.513056",
        "meta_mean_motion": 14.85693206,
        "meta_eccentricity": 0.0013026,
        "meta_inclination": 98.1268,
        "meta_ra_of_asc_node": 351.9914,
        "meta_arg_of_pericenter": 30.0127,
        "meta_mean_anomaly": 330.1832,
        "meta_ephemeris_type": 0,
        "meta_classification_type": "U",
        "meta_norad_cat_id": 29709,
        "meta_element_set_no": 999,
        "meta_rev_at_epoch": 2566,
        "meta_bstar": 0.00013174,
        "meta_mean_motion_dot": 1.087e-05,
        "meta_mean_motion_ddot": 0,
        "tle_line1": "1 29709U 07001A   25361.52998279  .00001087  00000+0  13174-3 0  9997",
        "tle_line2": "2 29709  98.1268 351.9914 0013026  30.0127 330.1832 14.85693206 25663"
      },
      "geometry": {
        "type": "Point",
        "coordinates": [
          -2.338023555101617,
          -33.71109929087831
        ]
      }
    },
    {
      "type": "Feature",
      "properties": {
        "norad_id": 31113,
        "name": "HAIYANG-1B",
        "group": "resource",
        "lat": 35.49996062660454,
        "lon": 171.38670891104684,
        "alt_km": 794.3402073263196,
        "timestamp": "2025-12-27T17:24:57.050014+00:00",
        "meta_object_name": "HAIYANG-1B",
        "meta_object_id": "2007-010A",
        "meta_epoch": "2025-12-27T04:59:54.758688",
        "meta_mean_motion": 14.30969898,
        "meta_eccentricity": 0.00134765,
        "meta_inclination": 98.3331,
        "meta_ra_of_asc_node": 344.8896,
        "meta_arg_of_pericenter": 356.379,
        "meta_mean_anomaly": 3.7294,
        "meta_ephemeris_type": 0,
        "meta_classification_type": "U",
        "meta_norad_cat_id": 31113,
        "meta_element_set_no": 999,
        "meta_rev_at_epoch": 97603,
        "meta_bstar": 7.5272376e-05,
        "meta_mean_motion_dot": 1.56e-06,
        "meta_mean_motion_ddot": 0,
        "tle_line1": "1 31113U 07010A   25361.20827267  .00000156  00000+0  75272-4 0  9996",
        "tle_line2": "2 31113  98.3331 344.8896 0013476 356.3790   3.7294 14.30969898976031"
      },
      "geometry": {
        "type": "Point",
        "coordinates": [
          171.38670891104684,
          35.49996062660454
        ]
      }
    },
    {
      "type": "Feature",
      "properties": {
        "norad_id": 31598,
        "name": "COSMO-SKYMED 1",
        "group": "resource",
        "lat": 70.25589180919246,
        "lon": 29.934010515363212,
        "alt_km": 572.2115605121817,
        "timestamp": "2025-12-27T17:24:57.050024+00:00",
        "meta_object_name": "COSMO-SKYMED 1",
        "meta_object_id": "2007-023A",
        "meta_epoch": "2025-12-27T12:07:05.128608",
        "meta_mean_motion": 14.95874437,
        "meta_eccentricity": 0.0001079,
        "meta_inclination": 97.8838,
        "meta_ra_of_asc_node": 187.0018,
        "meta_arg_of_pericenter": 78.1288,
        "meta_mean_anomaly": 282.0053,
        "meta_ephemeris_type": 0,
        "meta_classification_type": "U",
        "meta_norad_cat_id": 31598,
        "meta_element_set_no": 999,
        "meta_rev_at_epoch": 411,
        "meta_bstar": 0.00035237,
        "meta_mean_motion_dot": 3.881e-05,
        "meta_mean_motion_ddot": 0,
        "tle_line1": "1 31598U 07023A   25361.50492047  .00003881  00000+0  35237-3 0  9998",
        "tle_line2": "2 31598  97.8838 187.0018 0001079  78.1288 282.0053 14.95874437  4115"
      },
      "geometry": {
        "type": "Point",
        "coordinates": [
          29.934010515363212,
          70.25589180919246
        ]
      }
    },
    {
      "type": "Feature",
      "properties": {
        "norad_id": 31698,
        "name": "TERRASAR-X",
        "group": "resource",
        "lat": -58.9516240665611,
        "lon": 19.43268229287674,
        "alt_km": 516.4393012305763,
        "timestamp": "2025-12-27T17:24:57.050035+00:00",
        "meta_object_name": "TERRASAR-X",
        "meta_object_id": "2007-026A",
        "meta_epoch": "2025-12-26T13:13:25.268160",
        "meta_mean_motion": 15.19159007,
        "meta_eccentricity": 0.0001831,
        "meta_inclination": 97.4449,
        "meta_ra_of_asc_node": 5.7296,
        "meta_arg_of_pericenter": 80.7089,
        "meta_mean_anomaly": 279.4352,
        "meta_ephemeris_type": 0,
        "meta_classification_type": "U",
        "meta_norad_cat_id": 31698,
        "meta_element_set_no": 999,
        "meta_rev_at_epoch": 2701,
        "meta_bstar": 7.4512e-05,
        "meta_mean_motion_dot": 1.498e-05,
        "meta_mean_motion_ddot": 0,
        "tle_line1": "1 31698U 07026A   25360.55098690  .00001498  00000+0  74512-4 0  9994",
        "tle_line2": "2 31698  97.4449   5.7296 0001831  80.7089 279.4352 15.19159007 27010"
      },
      "geometry": {
        "type": "Point",
        "coordinates": [
          19.43268229287674,
          -58.9516240665611
        ]
      }
    },
    {
      "type": "Feature",
      "properties": {
        "norad_id": 32060,
        "name": "WORLDVIEW-1 (WV-1)",
        "group": "resource",
        "lat": -39.25240567766857,
        "lon": -67.09597199214852,
        "alt_km": 501.51602682428165,
        "timestamp": "2025-12-27T17:24:57.050046+00:00",
        "meta_object_name": "WORLDVIEW-1 (WV-1)",
        "meta_object_id": "2007-041A",
        "meta_epoch": "2025-12-27T07:00:01.279008",
        "meta_mean_motion": 15.23997296,
        "meta_eccentricity": 0.00030075,
        "meta_inclination": 97.3816,
        "meta_ra_of_asc_node": 118.5576,
        "meta_arg_of_pericenter": 346.3085,
        "meta_mean_anomaly": 13.807,
        "meta_ephemeris_type": 0,
        "meta_classification_type": "U",
        "meta_norad_cat_id": 32060,
        "meta_element_set_no": 999,
        "meta_rev_at_epoch": 1669,
        "meta_bstar": 0.0003911353,
        "meta_mean_motion_dot": 9.407e-05,
        "meta_mean_motion_ddot": 0,
        "tle_line1": "1 32060U 07041A   25361.29168147  .00009407  00000+0  39114-3 0  9998",
        "tle_line2": "2 32060  97.3816 118.5576 0003007 346.3085  13.8070 15.23997296 16693"
      },
      "geometry": {
        "type": "Point",
        "coordinates": [
          -67.09597199214852,
          -39.25240567766857
        ]
      }
    },
    {
      "type": "Feature",
      "properties": {
        "norad_id": 32289,
        "name": "YAOGAN-3",
        "group": "resource",
        "lat": -1.9904959581295572,
        "lon": 28.4892064764802,
        "alt_km": 601.2959954233766,
        "timestamp": "2025-12-27T17:24:57.050057+00:00",
        "meta_object_name": "YAOGAN-3",
        "meta_object_id": "2007-055A",
        "meta_epoch": "2025-12-27T12:35:21.970176",
        "meta_mean_motion": 14.89933051,
        "meta_eccentricity": 0.0001171,
        "meta_inclination": 97.8356,
        "meta_ra_of_asc_node": 28.0157,
        "meta_arg_of_pericenter": 79.1839,
        "meta_mean_anomaly": 280.951,
        "meta_ephemeris_type": 0,
        "meta_classification_type": "U",
        "meta_norad_cat_id": 32289,
        "meta_element_set_no": 999,
        "meta_rev_at_epoch": 98029,
        "meta_bstar": 0.0004423,
        "meta_mean_motion_dot": 4.203e-05,
        "meta_mean_motion_ddot": 0,
        "tle_line1": "1 32289U 07055A   25361.52455984  .00004203  00000+0  44230-3 0  9994",
        "tle_line2": "2 32289  97.8356  28.0157 0001171  79.1839 280.9510 14.89933051980290"
      },
      "geometry": {
        "type": "Point",
        "coordinates": [
          28.4892064764802,
          -1.9904959581295572
        ]
      }
    }
  ]
}